{"fetched_at":"2026-03-29T16:36:15Z","count":15609,"tles":[{"name":"STARLINK-11593 [DTC]","line1":"1 63318U 25057M   26087.53067745  .00244667  00000+0  18486-2 0  9997","line2":"2 63318  43.0028 150.7061 0002326 281.0440  79.0166 15.70917497 60175","category":"Starlink"}]}